[{"OBJECT_NAME":"STARLINK-2122","OBJECT_ID":"2021-005BD","EPOCH":"2026-03-09T03:55:52.124736","MEAN_MOTION":15.30221389,"ECCENTRICITY":0.00013494,"INCLINATION":53.161,"RA_OF_ASC_NODE":15.9494,"ARG_OF_PERICENTER":87.1367,"MEAN_ANOMALY":272.9788,"EPHEMERIS_TYPE":0,"CLASSIFICATION_TYPE":"U","NORAD_CAT_ID":47400,"ELEMENT_SET_NO":999,"REV_AT_EPOCH":28364,"BSTAR":0.00039300475,"MEAN_MOTION_DOT":0.00011306,"MEAN_MOTION_DDOT":0},{"OBJECT_NAME":"SCS-01 H","OBJECT_ID":"2025-100H","EPOCH":"2026-03-09T23:19:05.376864","MEAN_MOTION":15.31767757,"ECCENTRICITY":0.00071581,"INCLINATION":97.3749,"RA_OF_ASC_NODE":145.8085,"ARG_OF_PERICENTER":277.8492,"MEAN_ANOMALY":82.1937,"EPHEMERIS_TYPE":0,"CLASSIFICATION_TYPE":"U","NORAD_CAT_ID":63989,"ELEMENT_SET_NO":999,"REV_AT_EPOCH":4566,"BSTAR":0.0011436254,"MEAN_MOTION_DOT":0.00035149,"MEAN_MOTION_DDOT":0}]
